{"type": "FeatureCollection", "features": [ {"type": "Feature", "properties": {"norad_id": 66768, "name": "TRANSPORTER-15DG", "group": "last-30-days", "lat": 59.06736926163283, "lon": -94.23963362401844, "alt_km": 503.4682172715002, "timestamp": "2025-12-27T15:27:09.830423+00:00", "meta": {"OBJECT_NAME": "TRANSPORTER-15DG", "OBJECT_ID": "2025-276DG", "EPOCH": "2025-12-27T03:51:22.232736", "MEAN_MOTION": 15.18592494, "ECCENTRICITY": 0.0002053, "INCLINATION": 97.435, "RA_OF_ASC_NODE": 72.6985, "ARG_OF_PERICENTER": 72.0361, "MEAN_ANOMALY": 288.1097, "EPHEMERIS_TYPE": 0, "CLASSIFICATION_TYPE": "U", "NORAD_CAT_ID": 66768, "ELEMENT_SET_NO": 999, "REV_AT_EPOCH": 431, "BSTAR": 0.00053373466, "MEAN_MOTION_DOT": 0.00010979, "MEAN_MOTION_DDOT": 0}, "tle": {"line1": "1 66768U 25276DG  25361.16067399  .00010979  00000+0  53373-3 0  9992", "line2": "2 66768  97.4350  72.6985 0002053  72.0361 288.1097 15.18592494  4310"}}, "geometry": {"type": "Point", "coordinates": [-94.23963362401844, 59.06736926163283]}}, {"type": "Feature", "properties": {"norad_id": 66769, "name": "TRANSPORTER-15DH", "group": "last-30-days", "lat": 65.80324258524072, "lon": -89.89850566258967, "alt_km": 502.27001539350204, "timestamp": "2025-12-27T15:27:09.830442+00:00", "meta": {"OBJECT_NAME": "TRANSPORTER-15DH", "OBJECT_ID": "2025-276DH", "EPOCH": "2025-12-27T03:53:09.353184", "MEAN_MOTION": 15.18458714, "ECCENTRICITY": 0.00027173, "INCLINATION": 97.441, "RA_OF_ASC_NODE": 72.7181, "ARG_OF_PERICENTER": 100.2861, "MEAN_ANOMALY": 259.868, "EPHEMERIS_TYPE": 0, "CLASSIFICATION_TYPE": "U", "NORAD_CAT_ID": 66769, "ELEMENT_SET_NO": 999, "REV_AT_EPOCH": 431, "BSTAR": 0.00037123276, "MEAN_MOTION_DOT": 7.584e-05, "MEAN_MOTION_DDOT": 0}, "tle": {"line1": "1 66769U 25276DH  25361.16191381  .00007584  00000+0  37123-3 0  9995", "line2": "2 66769  97.4410  72.7181 0002717 100.2861 259.8680 15.18458714  4312"}}, "geometry": {"type": "Point", "coordinates": [-89.89850566258967, 65.80324258524072]}}, {"type": "Feature", "properties": {"norad_id": 66770, "name": "TRANSPORTER-15DJ", "group": "last-30-days", "lat": 64.56168161442389, "lon": -90.8399125111294, "alt_km": 502.0367558685293, "timestamp": "2025-12-27T15:27:09.830454+00:00", "meta": {"OBJECT_NAME": "TRANSPORTER-15DJ", "OBJECT_ID": "2025-276DJ", "EPOCH": "2025-12-27T03:52:47.542368", "MEAN_MOTION": 15.18416469, "ECCENTRICITY": 0.00033358, "INCLINATION": 97.4442, "RA_OF_ASC_NODE": 72.73, "ARG_OF_PERICENTER": 115.0078, "MEAN_ANOMALY": 245.1503, "EPHEMERIS_TYPE": 0, "CLASSIFICATION_TYPE": "U", "NORAD_CAT_ID": 66770, "ELEMENT_SET_NO": 999, "REV_AT_EPOCH": 431, "BSTAR": 0.00032455854, "MEAN_MOTION_DOT": 6.613e-05, "MEAN_MOTION_DDOT": 0}, "tle": {"line1": "1 66770U 25276DJ  25361.16166137  .00006613  00000+0  32456-3 0  9994", "line2": "2 66770  97.4442  72.7300 0003335 115.0078 245.1503 15.18416469  4316"}}, "geometry": {"type": "Point", "coordinates": [-90.8399125111294, 64.56168161442389]}}, {"type": "Feature", "properties": {"norad_id": 66771, "name": "TRANSPORTER-15DK", "group": "last-30-days", "lat": 60.7850993695125, "lon": -93.2759982710201, "alt_km": 502.3613680257786, "timestamp": "2025-12-27T15:27:09.830467+00:00", "meta": {"OBJECT_NAME": "TRANSPORTER-15DK", "OBJECT_ID": "2025-276DK", "EPOCH": "2025-12-27T03:51:48.402432", "MEAN_MOTION": 15.18522492, "ECCENTRICITY": 0.00030419, "INCLINATION": 97.4436, "RA_OF_ASC_NODE": 72.7282, "ARG_OF_PERICENTER": 107.2005, "MEAN_ANOMALY": 252.9562, "EPHEMERIS_TYPE": 0, "CLASSIFICATION_TYPE": "U", "NORAD_CAT_ID": 66771, "ELEMENT_SET_NO": 999, "REV_AT_EPOCH": 431, "BSTAR": 0.00043216638, "MEAN_MOTION_DOT": 8.857e-05, "MEAN_MOTION_DDOT": 0}, "tle": {"line1": "1 66771U 25276DK  25361.16097688  .00008857  00000+0  43217-3 0  9998", "line2": "2 66771  97.4436  72.7282 0003041 107.2005 252.9562 15.18522492  4311"}}, "geometry": {"type": "Point", "coordinates": [-93.2759982710201, 60.7850993695125]}}, {"type": "Feature", "properties": {"norad_id": 66772, "name": "TRANSPORTER-15DL", "group": "last-30-days", "lat": 44.57759619394636, "lon": -99.39212299791937, "alt_km": 504.3545849811744, "timestamp": "2025-12-27T15:27:09.830478+00:00", "meta": {"OBJECT_NAME": "TRANSPORTER-15DL", "OBJECT_ID": "2025-276DL", "EPOCH": "2025-12-27T05:22:25.453344", "MEAN_MOTION": 15.18760152, "ECCENTRICITY": 0.00028954, "INCLINATION": 97.4427, "RA_OF_ASC_NODE": 72.7934, "ARG_OF_PERICENTER": 93.4912, "MEAN_ANOMALY": 266.6654, "EPHEMERIS_TYPE": 0, "CLASSIFICATION_TYPE": "U", "NORAD_CAT_ID": 66772, "ELEMENT_SET_NO": 999, "REV_AT_EPOCH": 432, "BSTAR": 0.00063021594, "MEAN_MOTION_DOT": 0.00013043, "MEAN_MOTION_DDOT": 0}, "tle": {"line1": "1 66772U 25276DL  25361.22390571  .00013043  00000+0  63022-3 0  9992", "line2": "2 66772  97.4427  72.7934 0002895  93.4912 266.6654 15.18760152  4327"}}, "geometry": {"type": "Point", "coordinates": [-99.39212299791937, 44.57759619394636]}}, {"type": "Feature", "properties": {"norad_id": 66773, "name": "TRANSPORTER-15DM", "group": "last-30-days", "lat": 53.769479343317386, "lon": -96.52133291916105, "alt_km": 503.24679186902995, "timestamp": "2025-12-27T15:27:09.830488+00:00", "meta": {"OBJECT_NAME": "TRANSPORTER-15DM", "OBJECT_ID": "2025-276DM", "EPOCH": "2025-12-27T03:49:56.175744", "MEAN_MOTION": 15.18581738, "ECCENTRICITY": 0.00031327, "INCLINATION": 97.4423, "RA_OF_ASC_NODE": 72.7252, "ARG_OF_PERICENTER": 94.5537, "MEAN_ANOMALY": 265.6055, "EPHEMERIS_TYPE": 0, "CLASSIFICATION_TYPE": "U", "NORAD_CAT_ID": 66773, "ELEMENT_SET_NO": 999, "REV_AT_EPOCH": 431, "BSTAR": 0.00061390712, "MEAN_MOTION_DOT": 0.00012638, "MEAN_MOTION_DDOT": 0}, "tle": {"line1": "1 66773U 25276DM  25361.15967796  .00012638  00000+0  61391-3 0  9990", "line2": "2 66773  97.4423  72.7252 0003132  94.5537 265.6055 15.18581738  4311"}}, "geometry": {"type": "Point", "coordinates": [-96.52133291916105, 53.769479343317386]}}, {"type": "Feature", "properties": {"norad_id": 66774, "name": "TRANSPORTER-15DN", "group": "last-30-days", "lat": 50.08008087426457, "lon": -97.81532463080403, "alt_km": 503.78226152387833, "timestamp": "2025-12-27T15:27:09.830498+00:00", "meta": {"OBJECT_NAME": "TRANSPORTER-15DN", "OBJECT_ID": "2025-276DN", "EPOCH": "2025-12-27T03:48:58.316256", "MEAN_MOTION": 15.18645511, "ECCENTRICITY": 0.00029712, "INCLINATION": 97.4409, "RA_OF_ASC_NODE": 72.7212, "ARG_OF_PERICENTER": 92.0732, "MEAN_ANOMALY": 268.0843, "EPHEMERIS_TYPE": 0, "CLASSIFICATION_TYPE": "U", "NORAD_CAT_ID": 66774, "ELEMENT_SET_NO": 999, "REV_AT_EPOCH": 431, "BSTAR": 0.0004841201, "MEAN_MOTION_DOT": 9.967e-05, "MEAN_MOTION_DDOT": 0}, "tle": {"line1": "1 66774U 25276DN  25361.15900829  .00009967  00000+0  48412-3 0  9995", "line2": "2 66774  97.4409  72.7212 0002971  92.0732 268.0843 15.18645511  4314"}}, "geometry": {"type": "Point", "coordinates": [-97.81532463080403, 50.08008087426457]}}, {"type": "Feature", "properties": {"norad_id": 66775, "name": "PHI 1", "group": "last-30-days", "lat": 44.8454984347577, "lon": -99.36407700545124, "alt_km": 505.43217588923017, "timestamp": "2025-12-27T15:27:09.830508+00:00", "meta": {"OBJECT_NAME": "PHI 1", "OBJECT_ID": "2025-276DP", "EPOCH": "2025-12-27T03:47:35.953728", "MEAN_MOTION": 15.18712757, "ECCENTRICITY": 0.00025494, "INCLINATION": 97.4334, "RA_OF_ASC_NODE": 72.6968, "ARG_OF_PERICENTER": 62.3181, "MEAN_ANOMALY": 297.8312, "EPHEMERIS_TYPE": 0, "CLASSIFICATION_TYPE": "U", "NORAD_CAT_ID": 66775, "ELEMENT_SET_NO": 999, "REV_AT_EPOCH": 431, "BSTAR": 0.0006201267, "MEAN_MOTION_DOT": 0.00012815, "MEAN_MOTION_DDOT": 0}, "tle": {"line1": "1 66775U 25276DP  25361.15805502  .00012815  00000+0  62013-3 0  9997", "line2": "2 66775  97.4334  72.6968 0002549  62.3181 297.8312 15.18712757  4316"}}, "geometry": {"type": "Point", "coordinates": [-99.36407700545124, 44.8454984347577]}}, {"type": "Feature", "properties": {"norad_id": 66776, "name": "TRANSPORTER-15DQ", "group": "last-30-days", "lat": 42.05801166882494, "lon": -100.04215187451506, "alt_km": 505.3055981800853, "timestamp": "2025-12-27T15:27:09.830519+00:00", "meta": {"OBJECT_NAME": "TRANSPORTER-15DQ", "OBJECT_ID": "2025-276DQ", "EPOCH": "2025-12-27T05:21:45.268704", "MEAN_MOTION": 15.18768962, "ECCENTRICITY": 0.00027664, "INCLINATION": 97.4373, "RA_OF_ASC_NODE": 72.7756, "ARG_OF_PERICENTER": 75.9265, "MEAN_ANOMALY": 284.2277, "EPHEMERIS_TYPE": 0, "CLASSIFICATION_TYPE": "U", "NORAD_CAT_ID": 66776, "ELEMENT_SET_NO": 999, "REV_AT_EPOCH": 432, "BSTAR": 0.00060188435, "MEAN_MOTION_DOT": 0.00012456, "MEAN_MOTION_DDOT": 0}, "tle": {"line1": "1 66776U 25276DQ  25361.22344061  .00012456  00000+0  60188-3 0  9996", "line2": "2 66776  97.4373  72.7756 0002766  75.9265 284.2277 15.18768962  4320"}}, "geometry": {"type": "Point", "coordinates": [-100.04215187451506, 42.05801166882494]}}, {"type": "Feature", "properties": {"norad_id": 66777, "name": "TRANSPORTER-15DR", "group": "last-30-days", "lat": 25.48194069559714, "lon": -103.19872060474142, "alt_km": 506.584593018767, "timestamp": "2025-12-27T15:27:09.830529+00:00", "meta": {"OBJECT_NAME": "TRANSPORTER-15DR", "OBJECT_ID": "2025-276DR", "EPOCH": "2025-12-27T06:52:18.071328", "MEAN_MOTION": 15.19026464, "ECCENTRICITY": 0.00035018, "INCLINATION": 97.4461, "RA_OF_ASC_NODE": 72.8753, "ARG_OF_PERICENTER": 102.2313, "MEAN_ANOMALY": 257.9314, "EPHEMERIS_TYPE": 0, "CLASSIFICATION_TYPE": "U", "NORAD_CAT_ID": 66777, "ELEMENT_SET_NO": 999, "REV_AT_EPOCH": 433, "BSTAR": 0.00065810649, "MEAN_MOTION_DOT": 0.00013731, "MEAN_MOTION_DDOT": 0}, "tle": {"line1": "1 66777U 25276DR  25361.28632027  .00013731  00000+0  65811-3 0  9990", "line2": "2 66777  97.4461  72.8753 0003501 102.2313 257.9314 15.19026464  4338"}}, "geometry": {"type": "Point", "coordinates": [-103.19872060474142, 25.48194069559714]}}]}